[{"OBJECT_NAME":"STARLINK-5649","OBJECT_ID":"2023-013Z","EPOCH":"2026-03-09T00:56:02.592960","MEAN_MOTION":15.02538469,"ECCENTRICITY":0.00013965,"INCLINATION":43.0046,"RA_OF_ASC_NODE":303.6873,"ARG_OF_PERICENTER":266.6859,"MEAN_ANOMALY":93.3824,"EPHEMERIS_TYPE":0,"CLASSIFICATION_TYPE":"U","NORAD_CAT_ID":55354,"ELEMENT_SET_NO":999,"REV_AT_EPOCH":17161,"BSTAR":5.906213e-5,"MEAN_MOTION_DOT":5.94e-6,"MEAN_MOTION_DDOT":0},{"OBJECT_NAME":"RAPIDEYE 3","OBJECT_ID":"2008-040D","EPOCH":"2026-03-09T19:34:21.496512","MEAN_MOTION":15.06489596,"ECCENTRICITY":0.00114187,"INCLINATION":97.3959,"RA_OF_ASC_NODE":102.9968,"ARG_OF_PERICENTER":27.1842,"MEAN_ANOMALY":332.9981,"EPHEMERIS_TYPE":0,"CLASSIFICATION_TYPE":"U","NORAD_CAT_ID":33315,"ELEMENT_SET_NO":999,"REV_AT_EPOCH":95131,"BSTAR":0.00019030529,"MEAN_MOTION_DOT":2.754e-5,"MEAN_MOTION_DDOT":0}]
